43929,IRIDIUM 171,2019,100.4,860.0,+,86.39,Active,1,LEO,USA,USA,Commercial/Government,Communications,Falcon,1 43929U 19002H   24250.59317373  .00000396  00000+0  13419-3 0  9998,2 43929  86.3915 264.8316 0002292  98.0335 262.1121 14.34222020295993,14.3422202,0.0002292,LEO
43930,IRIDIUM 170,2019,97.81,860.0,+,86.6,Active,1,LEO,USA,USA,Commercial/Government,Communications,Falcon,1 43930U 19002J   24250.54931164  .00001108  00000+0  17184-3 0  9990,2 43930  86.6038 264.6552 0002530  90.9468 269.2039 14.72253632303820,14.72253632,0.000253,LEO
43931,IRIDIUM 167,2019,100.4,860.0,+,86.39,Active,1,LEO,USA,USA,Commercial/Government,Communications,Falcon,1 43931U 19002K   24250.58683924  .00000119  00000+0  35329-4 0  9996,2 43931  86.3907 264.6161 0002195  94.7223 265.4223 14.34218232295993,14.34218232,0.0002195,LEO
56726,IRIDIUM 181,2023,99.75,-1.0,+,86.87,Active,0,LEO,USA,USA,Unknown,Unknown,Unknown,1 56726U 23068S   24250.27678054  .00000753  00000+0  21674-3 0  9994,2 56726  86.8654 322.4477 0001876  97.4824 262.6590 14.43587228 68839,14.43587228,0.0001876,LEO
56727,IRIDIUM 177,2023,97.28,-1.0,+,86.19,Active,0,LEO,USA,USA,Unknown,Unknown,Unknown,1 56727U 23068T   24250.48224285  .00001868  00000+0  24240-3 0  9991,2 56727  86.1924 276.7557 0001845  91.8496 268.2936 14.80232907 70406,14.80232907,0.0001845,LEO
56728,IRIDIUM 174,2023,97.28,-1.0,+,86.19,Active,0,LEO,USA,USA,Unknown,Unknown,Unknown,1 56728U 23068U   24250.61197626  .00001477  00000+0  19087-3 0  9994,2 56728  86.1928 276.8040 0001809  98.7913 261.3513 14.80233018 70420,14.80233018,0.0001809,LEO
56729,IRIDIUM 178,2023,97.28,-1.0,+,86.58,Active,0,LEO,USA,USA,Unknown,Unknown,Unknown,1 56729U 23068V   24250.20105858  .00004632  00000+0  60558-3 0  9991,2 56729  86.5752 298.3168 0002136 100.9795 259.1667 14.80256938 70362,14.80256938,0.0002136,LEO
56730,IRIDIUM 179,2023,97.28,-1.0,+,86.68,Active,0,LEO,USA,USA,Unknown,Unknown,Unknown,1 56730U 23068W   24250.60143041  .00004582  00000+0  59923-3 0  9991,2 56730  86.6771 303.3086 0002015  90.1886 269.9567 14.80244952 70427,14.80244952,0.0002015,LEO
